STARLINK-4451           
1 53492U 22099AD  26175.30765558  .00138687  00000+0  31933-2 0  9998
2 53492  97.6001 297.2419 0000973 141.0186 219.1131 15.42079855212157
STARLINK-4340           
1 53494U 22099AF  26175.03050648  .00000627  00000+0  47356-4 0  9997
2 53494  97.3227 294.8494 0001059  48.8195 311.3124 15.05656844212056
STARLINK-4429           
1 53495U 22099AG  26175.20360000 -.00001322  00000+0 -87675-4 0  9996
2 53495  97.3189 293.8374 0001957  94.5898 265.5553 15.05662438212002
STARLINK-4453           
1 53497U 22099AJ  26175.21190363  .00000805  00000+0  59693-4 0  9994
2 53497  97.3186 293.8177 0001862 149.6671 210.4665 15.05656523212009
STARLINK-4439           
1 53498U 22099AK  26175.06649762  .00000665  00000+0  50020-4 0  9999
2 53498  97.3209 294.7856 0001812 121.1833 238.9572 15.05655210212059
STARLINK-4454           
1 53499U 22099AL  26175.25002315  .00121563  00000+0  34368-2 0  9994
2 53499  97.6016 298.6344 0001721  76.9512 176.3316 15.35841090  5972
STARLINK-4455           
1 53500U 22099AM  26175.25002315  .00692728  00000+0  45888-2 0  9992
2 53500  97.6042 300.3241 0001034  62.0429  14.5890 15.73546228  5945
STARLINK-4434           
1 53501U 22099AN  26175.25002315  .00421552  00000+0  43534-2 0  9994
2 53501  97.6048 299.0711 0001360  59.8470   6.2382 15.63415975  5981
STARLINK-4435           
1 53502U 22099AP  26175.25002315  .00484652  00000+0  48349-2 0  9994
2 53502  97.6028 300.3084 0001169  54.7619  63.7137 15.64101217  5949
STARLINK-4448           
1 53504U 22099AR  26175.25002315 -.00393823  00000+0 -52094-2 0  9999
2 53504  97.6025 299.2164 0001547  75.0159 356.6341 15.59557830  5893
STARLINK-4446           
1 53505U 22099AS  26175.09537891  .00087703  00000+0  48074-3 0  9993
2 53505  97.6054 306.7803 0003707 198.6583 161.4548 15.79546466212743
STARLINK-4437           
1 53506U 22099AT  26175.25002315  .00490585  00000+0  46720-2 0  9991
2 53506  97.6047 300.4314 0001597  72.9768 357.9041 15.65266879  5807
STARLINK-4443           
1 53508U 22099AV  26175.21879901 -.00000080  00000+0 -15827-5 0  9998
2 53508  97.3264 295.0079 0001278 154.4911 205.6380 15.05664043212080
STARLINK-4402           
1 53509U 22099AW  26175.25002315  .00281806  00000+0  36177-2 0  9993
2 53509  97.6025 298.8633 0001451  74.5643 343.9429 15.58161523  5996
YAOGAN-35 04A           
1 53522U 22100A   26174.87286064  .00008555  00000+0  35631-3 0  9996
2 53522  35.0117   9.7532 0005103 320.6280  39.4064 15.22987562214282
YAOGAN-35 04B           
1 53524U 22100C   26175.15095090  .00011715  00000+0  32567-3 0  9994
2 53524  35.0022 342.3882 0004870 345.2029  14.8547 15.36021284106308
YAOGAN-35 04C           
1 53526U 22100E   26175.27852277  .00006681  00000+0  28812-3 0  9991
2 53526  34.9964  31.4660 0007930 121.1446 239.0047 15.21839203214046
STARLINK-4503           
1 53528U 22101B   26175.09486689 -.00000345  00000+0 -35790-5 0  9992
2 53528  53.1612 316.3120 0001347  90.4520 269.6626 15.08827623212222
STARLINK-4478           
1 53529U 22101C   26174.65349809  .00016708  00000+0  90315-3 0  9996
2 53529  53.2149 315.2723 0002301  55.2072 304.9139 15.14816530212200
STARLINK-4482           
1 53530U 22101D   26175.10225204 -.00000165  00000+0  76943-5 0  9995
2 53530  53.1605 316.4969 0001080  82.9550 277.1564 15.08829306212227
STARLINK-4487           
1 53531U 22101E   26175.08381882  .00000073  00000+0  22663-4 0  9994
2 53531  53.1602 316.3585 0001107  90.7789 269.3329 15.08834110212220
STARLINK-4483           
1 53532U 22101F   26175.11691499  .00004214  00000+0  28245-3 0  9999
2 53532  53.1614 316.2094 0000698  73.0529 287.0539 15.08867610212230
STARLINK-4493           
1 53533U 22101G   26175.11326073  .00000854  00000+0  71774-4 0  9995
2 53533  53.1596 316.2157 0001252  88.5186 271.5949 15.08833227212237
STARLINK-4138           
1 53535U 22101J   26175.10958513  .00005380  00000+0  35608-3 0  9990
2 53535  53.1599 316.2426 0000433 111.6232 248.4806 15.08813259212239
STARLINK-4053           
1 53536U 22101K   26175.08384728  .00091143  00000+0  55553-2 0  9991
2 53536  53.1595 306.2729 0001973 217.1062 142.9794 15.09595100212365
STARLINK-4120           
1 53537U 22101L   26174.11693456  .00000295  00000+0  36635-4 0  9996
2 53537  53.1606 320.6772 0001216  94.1794 265.9337 15.08830750212082
STARLINK-4123           
1 53539U 22101N   26175.10589998  .00000997  00000+0  80724-4 0  9990
2 53539  53.1591 316.2602 0001278  95.1747 264.9390 15.08834743212238
STARLINK-4486           
1 53540U 22101P   26174.78765895  .00000031  00000+0  20046-4 0  9997
2 53540  53.1616 308.0472 0001209  90.4137 269.6993 15.08834870213005
STARLINK-4485           
1 53541U 22101Q   26175.09854687 -.00000361  00000+0 -45722-5 0  9998
2 53541  53.1608 316.2941 0001243  89.4017 270.7117 15.08828111212924
STARLINK-4489           
1 53542U 22101R   26175.25002315  .00091490  00000+0  44756-2 0  9994
2 53542  53.1606 305.2741 0001226  65.9727 327.4481 15.17442925  5847
