OBJECT_NAME,OBJECT_ID,EPOCH,MEAN_MOTION,ECCENTRICITY,INCLINATION,RA_OF_ASC_NODE,ARG_OF_PERICENTER,MEAN_ANOMALY,EPHEMERIS_TYPE,CLASSIFICATION_TYPE,NORAD_CAT_ID,ELEMENT_SET_NO,REV_AT_EPOCH,BSTAR,MEAN_MOTION_DOT,MEAN_MOTION_DDOT
STARLINK-4451,2022-099AD,2026-06-24T07:23:01.442112,15.42079855,.00009731,97.6001,297.2419,141.0186,219.1131,0,U,53492,999,21215,.31933442E-2,.138687E-2,0
STARLINK-4340,2022-099AF,2026-06-24T00:43:55.759872,15.05656844,.00010594,97.3227,294.8494,48.8195,311.3124,0,U,53494,999,21205,.47355607E-4,.627E-5,0
STARLINK-4429,2022-099AG,2026-06-24T04:53:11.040000,15.05662438,.0001957,97.3189,293.8374,94.5898,265.5553,0,U,53495,999,21200,-.87674614E-4,-.1322E-4,0
STARLINK-4453,2022-099AJ,2026-06-24T05:05:08.473632,15.05656523,.00018626,97.3186,293.8177,149.6671,210.4665,0,U,53497,999,21200,.5969328E-4,.805E-5,0
STARLINK-4439,2022-099AK,2026-06-24T01:35:45.394368,15.05655210,.00018126,97.3209,294.7856,121.1833,238.9572,0,U,53498,999,21205,.50019558E-4,.665E-5,0
STARLINK-4454,2022-099AL,2026-06-24T06:00:02.000160,15.35841090,.00017219,97.6016,298.6344,76.9512,176.3316,0,U,53499,999,597,.34368083E-2,.121563E-2,0
STARLINK-4455,2022-099AM,2026-06-24T06:00:02.000160,15.73546228,.00010347,97.6042,300.3241,62.0429,14.5890,0,U,53500,999,594,.4588757E-2,.692728E-2,0
STARLINK-4434,2022-099AN,2026-06-24T06:00:02.000160,15.63415975,.00013609,97.6048,299.0711,59.8470,6.2382,0,U,53501,999,598,.4353363E-2,.421552E-2,0
STARLINK-4435,2022-099AP,2026-06-24T06:00:02.000160,15.64101217,.0001169,97.6028,300.3084,54.7619,63.7137,0,U,53502,999,594,.48349294E-2,.484652E-2,0
STARLINK-4448,2022-099AR,2026-06-24T06:00:02.000160,15.59557830,.00015475,97.6025,299.2164,75.0159,356.6341,0,U,53504,999,589,-.52094039E-2,-.393823E-2,0
STARLINK-4446,2022-099AS,2026-06-24T02:17:20.737824,15.79546466,.00037075,97.6054,306.7803,198.6583,161.4548,0,U,53505,999,21274,.48074185E-3,.87703E-3,0
STARLINK-4437,2022-099AT,2026-06-24T06:00:02.000160,15.65266879,.00015972,97.6047,300.4314,72.9768,357.9041,0,U,53506,999,580,.46719585E-2,.490585E-2,0
STARLINK-4443,2022-099AV,2026-06-24T05:15:04.234464,15.05664043,.00012782,97.3264,295.0079,154.4911,205.6380,0,U,53508,999,21208,-.1582659E-5,-.8E-6,0
STARLINK-4402,2022-099AW,2026-06-24T06:00:02.000160,15.58161523,.00014512,97.6025,298.8633,74.5643,343.9429,0,U,53509,999,599,.36176906E-2,.281806E-2,0
YAOGAN-35 04A,2022-100A,2026-06-23T20:56:55.159296,15.22987562,.0005103,35.0117,9.7532,320.6280,39.4064,0,U,53522,999,21428,.35631041E-3,.8555E-4,0
YAOGAN-35 04B,2022-100C,2026-06-24T03:37:22.157760,15.36021284,.00048707,35.0022,342.3882,345.2029,14.8547,0,U,53524,999,10630,.3256728E-3,.11715E-3,0
YAOGAN-35 04C,2022-100E,2026-06-24T06:41:04.367328,15.21839203,.000793,34.9964,31.4660,121.1446,239.0047,0,U,53526,999,21404,.2881171E-3,.6681E-4,0
STARLINK-4503,2022-101B,2026-06-24T02:16:36.499296,15.08827623,.00013471,53.1612,316.3120,90.4520,269.6626,0,U,53528,999,21222,-.3579037E-5,-.345E-5,0
STARLINK-4478,2022-101C,2026-06-23T15:41:02.234976,15.14816530,.00023019,53.2149,315.2723,55.2072,304.9139,0,U,53529,999,21220,.90315043E-3,.16708E-3,0
STARLINK-4482,2022-101D,2026-06-24T02:27:14.576256,15.08829306,.00010807,53.1605,316.4969,82.9550,277.1564,0,U,53530,999,21222,.7694335E-5,-.165E-5,0
STARLINK-4487,2022-101E,2026-06-24T02:00:41.946048,15.08834110,.00011075,53.1602,316.3585,90.7789,269.3329,0,U,53531,999,21222,.22662665E-4,.73E-6,0
STARLINK-4483,2022-101F,2026-06-24T02:48:21.455136,15.08867610,.00006986,53.1614,316.2094,73.0529,287.0539,0,U,53532,999,21223,.28245335E-3,.4214E-4,0
STARLINK-4493,2022-101G,2026-06-24T02:43:05.727072,15.08833227,.00012523,53.1596,316.2157,88.5186,271.5949,0,U,53533,999,21223,.7177364E-4,.854E-5,0
STARLINK-4138,2022-101J,2026-06-24T02:37:48.155232,15.08813259,.00004332,53.1599,316.2426,111.6232,248.4806,0,U,53535,999,21223,.35607861E-3,.538E-4,0
STARLINK-4053,2022-101K,2026-06-24T02:00:44.404992,15.09595100,.00019739,53.1595,306.2729,217.1062,142.9794,0,U,53536,999,21236,.55552907E-2,.91143E-3,0
STARLINK-4120,2022-101L,2026-06-23T02:48:23.145984,15.08830750,.0001216,53.1606,320.6772,94.1794,265.9337,0,U,53537,999,21208,.36635464E-4,.295E-5,0
STARLINK-4123,2022-101N,2026-06-24T02:32:29.758272,15.08834743,.00012785,53.1591,316.2602,95.1747,264.9390,0,U,53539,999,21223,.80723562E-4,.997E-5,0
STARLINK-4486,2022-101P,2026-06-23T18:54:13.733280,15.08834870,.00012095,53.1616,308.0472,90.4137,269.6993,0,U,53540,999,21300,.20046213E-4,.31E-6,0
STARLINK-4485,2022-101Q,2026-06-24T02:21:54.449568,15.08828111,.00012433,53.1608,316.2941,89.4017,270.7117,0,U,53541,999,21292,-.457218E-5,-.361E-5,0
STARLINK-4489,2022-101R,2026-06-24T06:00:02.000160,15.17442925,.00012268,53.1606,305.2741,65.9727,327.4481,0,U,53542,999,584,.44756185E-2,.9149E-3,0
